HAWK-A                  
1 43765U 18099H   26199.12558004  .00003517  00000+0  14155-3 0  9998
2 43765  97.3892 250.9620 0035035 173.7380 186.4303 15.24986598417817
HAWK-B                  
1 43794U 18099AN  26199.11860852  .00003071  00000+0  13136-3 0  9999
2 43794  97.3942 250.3049 0031675 191.7187 168.3317 15.23134334417743
HAWK-C                  
1 43799U 18099AT  26199.29329796  .00004549  00000+0  16275-3 0  9998
2 43799  97.3868 252.1947 0040616 172.9032 187.2792 15.28519507418660
HAWK-2C                 
1 47502U 21006CT  26199.12011265  .00003429  00000+0  10316-3 0  9993
2 47502  97.2259 242.8173 0008684  92.6255 267.5983 15.35010089304241
HAWK-2A                 
1 47505U 21006CW  26199.12229580  .00003951  00000+0  11846-3 0  9996
2 47505  97.2301 243.5152 0008220  95.9424 264.2757 15.35032145304247
HAWK-2B                 
1 47508U 21006CZ  26199.11557643  .00003952  00000+0  11800-3 0  9993
2 47508  97.2172 241.7920 0008767  94.2359 265.9887 15.35160219304240
HAWK-3B                 
1 48931U 21059BE  26199.09212460  .00031299  00000+0  23996-3 0  9998
2 48931  97.6632  38.7819 0004731 187.5925 172.5267 15.72043913282702
HAWK-3C                 
1 48948U 21059BX  26199.09180544  .00029344  00000+0  22507-3 0  9998
2 48948  97.6749  44.5200 0005037 187.8290 172.2895 15.72043790282703
HAWK-3A                 
1 48957U 21059CG  26199.09169414  .00030363  00000+0  23284-3 0  9997
2 48957  97.6693  41.6998 0004927 190.0290 170.0875 15.72042965282703
HAWK-5C                 
1 52754U 22057Y   26199.18711851  .00010517  00000+0  17410-3 0  9997
2 52754  97.6626   0.8827 0002501 332.5417  27.5703 15.52390365231154
HAWK-5B                 
1 52756U 22057AA  26199.12248197  .00010427  00000+0  17265-3 0  9999
2 52756  97.6638 359.1680 0003199 318.5187  41.5822 15.52385437231149
HAWK-5A                 
1 52757U 22057AB  26199.18674028  .00010595  00000+0  17538-3 0  9991
2 52757  97.6633   0.0668 0003053 324.1521  35.9525 15.52389197231152
HAWK-6B                 
1 55324U 23011A   26198.93568646  .00002570  00000+0  11461-3 0  9998
2 55324  40.4976 172.6890 0004472 254.5549 105.4766 15.23169163192531
HAWK-6C                 
1 55326U 23011C   26199.26288320  .00002222  00000+0  10020-3 0  9999
2 55326  40.4967 167.6154 0004974 250.3835 109.6437 15.23170261192597
HAWK-6A                 
1 55327U 23011D   26199.19735523  .00002317  00000+0  10414-3 0  9996
2 55327  40.4977 169.6247 0004620 247.0466 112.9856 15.23169943192581
HAWK-7A                 
1 56191U 23054P   26199.16117738  .00002878  00000+0  10917-3 0  9992
2 56191  97.2655  85.7107 0001148 314.4527  45.6619 15.27650536181759
